GLOBALSTAR M035         
1 25851U 99037A   25045.52385963 -.00000006  00000+0  21838-2 0  9996
2 25851  51.9986 328.5193 0013742 140.5633  30.4198 11.04535891 82700
GLOBALSTAR M032         
1 25852U 99037B   25045.51212140 -.00000004  00000+0  20005-2 0  9995
2 25852  51.9936 162.2021 0010341 323.5863  36.4233 11.19057409121057
GLOBALSTAR M051         
1 25853U 99037C   25045.18691925 -.00000032  00000+0  97351-3 0  9991
2 25853  51.9832 337.6176 0001209  10.4522 349.6313 11.42202289118338
GLOBALSTAR M030         
1 25854U 99037D   25045.55076498 -.00000124  00000+0 -10436-2 0  9996
2 25854  51.9868 150.6404 0004166 179.7945 180.2874 11.55102638135878
GLOBALSTAR M048         
1 25872U 99041A   25045.34073603 -.00000055  00000+0  40283-3 0  9999
2 25872  51.9349 267.5328 0012994 336.8535 197.4203 11.33854632111047
GLOBALSTAR M026         
1 25873U 99041B   25045.62678326 -.00000048  00000+0  59347-3 0  9997
2 25873  52.0006  87.5351 0001625  70.9651 107.3302 11.06828272134912
GLOBALSTAR M043         
1 25874U 99041C   25045.20427365 -.00000110  00000+0 -12428-2 0  9996
2 25874  51.9436  10.5957 0013420 102.6946 358.6884 11.25689403109024
GLOBALSTAR M028         
1 25875U 99041D   25045.54916681 -.00000098  00000+0  13819-4 0  9999
2 25875  51.9604 198.7477 0063793 164.3698 195.9150 12.50577108174831
